[{"OBJECT_NAME":"STARLINK-30891","OBJECT_ID":"2023-177S","EPOCH":"2025-11-05T23:06:37.288512","MEAN_MOTION":15.02542022,"ECCENTRICITY":0.00010801,"INCLINATION":43.0048,"RA_OF_ASC_NODE":303.9207,"ARG_OF_PERICENTER":284.8872,"MEAN_ANOMALY":75.1851,"EPHEMERIS_TYPE":0,"CLASSIFICATION_TYPE":"U","NORAD_CAT_ID":58367,"ELEMENT_SET_NO":999,"REV_AT_EPOCH":10954,"BSTAR":9.4148579e-5,"MEAN_MOTION_DOT":1.069e-5,"MEAN_MOTION_DDOT":0},{"OBJECT_NAME":"STARLINK-30889","OBJECT_ID":"2023-177T","EPOCH":"2025-11-05T07:12:33.094656","MEAN_MOTION":15.02528343,"ECCENTRICITY":0.00010033,"INCLINATION":43.0035,"RA_OF_ASC_NODE":307.5476,"ARG_OF_PERICENTER":269.1783,"MEAN_ANOMALY":90.8944,"EPHEMERIS_TYPE":0,"CLASSIFICATION_TYPE":"U","NORAD_CAT_ID":58368,"ELEMENT_SET_NO":999,"REV_AT_EPOCH":10950,"BSTAR":-8.4315843e-5,"MEAN_MOTION_DOT":-1.342e-5,"MEAN_MOTION_DDOT":0},{"OBJECT_NAME":"STARLINK-30870","OBJECT_ID":"2023-177U","EPOCH":"2025-11-05T23:03:27.041760","MEAN_MOTION":15.02538479,"ECCENTRICITY":0.00016495,"INCLINATION":43.006,"RA_OF_ASC_NODE":303.9036,"ARG_OF_PERICENTER":271.3027,"MEAN_ANOMALY":88.7626,"EPHEMERIS_TYPE":0,"CLASSIFICATION_TYPE":"U","NORAD_CAT_ID":58369,"ELEMENT_SET_NO":999,"REV_AT_EPOCH":10960,"BSTAR":0.00014755543,"MEAN_MOTION_DOT":1.79e-5,"MEAN_MOTION_DDOT":0},{"OBJECT_NAME":"STARLINK-30888","OBJECT_ID":"2023-177V","EPOCH":"2025-11-04T00:05:54.713472","MEAN_MOTION":15.02554238,"ECCENTRICITY":0.0001399,"INCLINATION":43.0043,"RA_OF_ASC_NODE":315.0103,"ARG_OF_PERICENTER":257.8193,"MEAN_ANOMALY":102.2493,"EPHEMERIS_TYPE":0,"CLASSIFICATION_TYPE":"U","NORAD_CAT_ID":58370,"ELEMENT_SET_NO":999,"REV_AT_EPOCH":10931,"BSTAR":0.00022950323,"MEAN_MOTION_DOT":2.899e-5,"MEAN_MOTION_DDOT":0},{"OBJECT_NAME":"STARLINK-30859","OBJECT_ID":"2023-177W","EPOCH":"2025-11-05T23:43:22.808352","MEAN_MOTION":15.02536047,"ECCENTRICITY":0.00011716,"INCLINATION":43.0039,"RA_OF_ASC_NODE":304.0794,"ARG_OF_PERICENTER":275.301,"MEAN_ANOMALY":84.7699,"EPHEMERIS_TYPE":0,"CLASSIFICATION_TYPE":"U","NORAD_CAT_ID":58371,"ELEMENT_SET_NO":999,"REV_AT_EPOCH":10961,"BSTAR":5.5374803e-5,"MEAN_MOTION_DOT":5.44e-6,"MEAN_MOTION_DDOT":0},{"OBJECT_NAME":"STARLINK-30884","OBJECT_ID":"2023-177X","EPOCH":"2025-11-05T22:55:25.864608","MEAN_MOTION":15.0253197,"ECCENTRICITY":6.183e-5,"INCLINATION":43.0045,"RA_OF_ASC_NODE":303.8619,"ARG_OF_PERICENTER":300.4856,"MEAN_ANOMALY":59.5925,"EPHEMERIS_TYPE":0,"CLASSIFICATION_TYPE":"U","NORAD_CAT_ID":58372,"ELEMENT_SET_NO":999,"REV_AT_EPOCH":10960,"BSTAR":4.1232977e-5,"MEAN_MOTION_DOT":3.53e-6,"MEAN_MOTION_DDOT":0},{"OBJECT_NAME":"STARLINK-30852","OBJECT_ID":"2023-177Y","EPOCH":"2025-11-05T23:35:23.309952","MEAN_MOTION":15.02537949,"ECCENTRICITY":9.402e-5,"INCLINATION":43.0038,"RA_OF_ASC_NODE":304.0369,"ARG_OF_PERICENTER":266.41,"MEAN_ANOMALY":93.6635,"EPHEMERIS_TYPE":0,"CLASSIFICATION_TYPE":"U","NORAD_CAT_ID":58373,"ELEMENT_SET_NO":999,"REV_AT_EPOCH":10960,"BSTAR":5.5806972e-5,"MEAN_MOTION_DOT":5.5e-6,"MEAN_MOTION_DDOT":0},{"OBJECT_NAME":"STARLINK-30911","OBJECT_ID":"2023-178A","EPOCH":"2025-11-05T23:35:11.217408","MEAN_MOTION":15.3019936,"ECCENTRICITY":0.00011612,"INCLINATION":53.1582,"RA_OF_ASC_NODE":215.5125,"ARG_OF_PERICENTER":96.6821,"MEAN_ANOMALY":263.4312,"EPHEMERIS_TYPE":0,"CLASSIFICATION_TYPE":"U","NORAD_CAT_ID":58374,"ELEMENT_SET_NO":999,"REV_AT_EPOCH":11094,"BSTAR":5.1655962e-5,"MEAN_MOTION_DOT":1.171e-5,"MEAN_MOTION_DDOT":0},{"OBJECT_NAME":"STARLINK-30894","OBJECT_ID":"2023-178B","EPOCH":"2025-11-05T17:34:10.291584","MEAN_MOTION":15.30199057,"ECCENTRICITY":0.00012673,"INCLINATION":53.1606,"RA_OF_ASC_NODE":216.796,"ARG_OF_PERICENTER":88.7974,"MEAN_ANOMALY":271.3172,"EPHEMERIS_TYPE":0,"CLASSIFICATION_TYPE":"U","NORAD_CAT_ID":58375,"ELEMENT_SET_NO":999,"REV_AT_EPOCH":11084,"BSTAR":3.8501682e-5,"MEAN_MOTION_DOT":7.81e-6,"MEAN_MOTION_DDOT":0},{"OBJECT_NAME":"STARLINK-30910","OBJECT_ID":"2023-178C","EPOCH":"2025-11-05T17:38:43.708704","MEAN_MOTION":15.30201347,"ECCENTRICITY":0.00012666,"INCLINATION":53.1617,"RA_OF_ASC_NODE":216.8165,"ARG_OF_PERICENTER":97.3233,"MEAN_ANOMALY":262.7912,"EPHEMERIS_TYPE":0,"CLASSIFICATION_TYPE":"U","NORAD_CAT_ID":58376,"ELEMENT_SET_NO":999,"REV_AT_EPOCH":11091,"BSTAR":6.7874634e-5,"MEAN_MOTION_DOT":1.652e-5,"MEAN_MOTION_DDOT":0},{"OBJECT_NAME":"STARLINK-30914","OBJECT_ID":"2023-178D","EPOCH":"2025-11-05T01:41:30.017184","MEAN_MOTION":15.30184975,"ECCENTRICITY":0.00012251,"INCLINATION":53.1602,"RA_OF_ASC_NODE":219.7623,"ARG_OF_PERICENTER":93.067,"MEAN_ANOMALY":267.0471,"EPHEMERIS_TYPE":0,"CLASSIFICATION_TYPE":"U","NORAD_CAT_ID":58377,"ELEMENT_SET_NO":999,"REV_AT_EPOCH":11081,"BSTAR":-5.1967356e-5,"MEAN_MOTION_DOT":-1.897e-5,"MEAN_MOTION_DDOT":0},{"OBJECT_NAME":"STARLINK-30920","OBJECT_ID":"2023-178E","EPOCH":"2025-11-05T16:31:14.563200","MEAN_MOTION":15.30196171,"ECCENTRICITY":0.0001178,"INCLINATION":53.1607,"RA_OF_ASC_NODE":204.4802,"ARG_OF_PERICENTER":94.4291,"MEAN_ANOMALY":265.6844,"EPHEMERIS_TYPE":0,"CLASSIFICATION_TYPE":"U","NORAD_CAT_ID":58378,"ELEMENT_SET_NO":999,"REV_AT_EPOCH":11108,"BSTAR":2.5826046e-5,"MEAN_MOTION_DOT":4.06e-6,"MEAN_MOTION_DDOT":0},{"OBJECT_NAME":"STARLINK-30882","OBJECT_ID":"2023-178F","EPOCH":"2025-11-05T00:28:45.113376","MEAN_MOTION":15.3013103,"ECCENTRICITY":0.00013643,"INCLINATION":53.1606,"RA_OF_ASC_NODE":220.1731,"ARG_OF_PERICENTER":86.25,"MEAN_ANOMALY":273.8656,"EPHEMERIS_TYPE":0,"CLASSIFICATION_TYPE":"U","NORAD_CAT_ID":58379,"ELEMENT_SET_NO":999,"REV_AT_EPOCH":11080,"BSTAR":-0.00041158142,"MEAN_MOTION_DOT":-0.00012503,"MEAN_MOTION_DDOT":0},{"OBJECT_NAME":"STARLINK-30915","OBJECT_ID":"2023-178G","EPOCH":"2025-11-05T21:37:19.845696","MEAN_MOTION":15.30210288,"ECCENTRICITY":0.00012384,"INCLINATION":53.16,"RA_OF_ASC_NODE":126.3239,"ARG_OF_PERICENTER":82.0017,"MEAN_ANOMALY":278.1124,"EPHEMERIS_TYPE":0,"CLASSIFICATION_TYPE":"U","NORAD_CAT_ID":58380,"ELEMENT_SET_NO":999,"REV_AT_EPOCH":11216,"BSTAR":-3.821366e-6,"MEAN_MOTION_DOT":-4.72e-6,"MEAN_MOTION_DDOT":0},{"OBJECT_NAME":"STARLINK-30923","OBJECT_ID":"2023-178H","EPOCH":"2025-11-05T17:56:57.225120","MEAN_MOTION":15.30185496,"ECCENTRICITY":0.00012199,"INCLINATION":53.1603,"RA_OF_ASC_NODE":216.8523,"ARG_OF_PERICENTER":87.7554,"MEAN_ANOMALY":272.3587,"EPHEMERIS_TYPE":0,"CLASSIFICATION_TYPE":"U","NORAD_CAT_ID":58381,"ELEMENT_SET_NO":999,"REV_AT_EPOCH":11084,"BSTAR":0.00018726872,"MEAN_MOTION_DOT":5.189e-5,"MEAN_MOTION_DDOT":0},{"OBJECT_NAME":"STARLINK-30927","OBJECT_ID":"2023-178J","EPOCH":"2025-11-05T01:02:08.807136","MEAN_MOTION":15.30183096,"ECCENTRICITY":0.00015249,"INCLINATION":53.1614,"RA_OF_ASC_NODE":220.3174,"ARG_OF_PERICENTER":96.1857,"MEAN_ANOMALY":263.9317,"EPHEMERIS_TYPE":0,"CLASSIFICATION_TYPE":"U","NORAD_CAT_ID":58382,"ELEMENT_SET_NO":999,"REV_AT_EPOCH":11078,"BSTAR":6.4996891e-5,"MEAN_MOTION_DOT":1.565e-5,"MEAN_MOTION_DDOT":0}]
