STARLINK-30891          
1 58367U 23177S   25309.96293158  .00001069  00000+0  94149-4 0  9997
2 58367  43.0048 303.9207 0001080 284.8872  75.1851 15.02542022109541
STARLINK-30889          
1 58368U 23177T   25309.30038304 -.00001342  00000+0 -84316-4 0  9997
2 58368  43.0035 307.5476 0001003 269.1783  90.8944 15.02528343109501
STARLINK-30870          
1 58369U 23177U   25309.96072965  .00001790  00000+0  14756-3 0  9996
2 58369  43.0060 303.9036 0001649 271.3027  88.7626 15.02538479109609
STARLINK-30888          
1 58370U 23177V   25308.00410548  .00002899  00000+0  22950-3 0  9991
2 58370  43.0043 315.0103 0001399 257.8193 102.2493 15.02554238109319
STARLINK-30859          
1 58371U 23177W   25309.98845843  .00000544  00000+0  55375-4 0  9993
2 58371  43.0039 304.0794 0001171 275.3010  84.7699 15.02536047109613
STARLINK-30884          
1 58372U 23177X   25309.95516047  .00000353  00000+0  41233-4 0  9998
2 58372  43.0045 303.8619 0000618 300.4856  59.5925 15.02531970109608
STARLINK-30852          
1 58373U 23177Y   25309.98290868  .00000550  00000+0  55807-4 0  9993
2 58373  43.0038 304.0369 0000940 266.4100  93.6635 15.02537949109606
STARLINK-30911          
1 58374U 23178A   25309.98276872  .00001171  00000+0  51656-4 0  9992
2 58374  53.1582 215.5125 0001161  96.6821 263.4312 15.30199360110948
STARLINK-30894          
1 58375U 23178B   25309.73206356  .00000781  00000+0  38502-4 0  9997
2 58375  53.1606 216.7960 0001267  88.7974 271.3172 15.30199057110848
STARLINK-30910          
1 58376U 23178C   25309.73522811  .00001652  00000+0  67875-4 0  9998
2 58376  53.1617 216.8165 0001266  97.3233 262.7912 15.30201347110912
STARLINK-30914          
1 58377U 23178D   25309.07048631 -.00001897  00000+0 -51967-4 0  9997
2 58377  53.1602 219.7623 0001225  93.0670 267.0471 15.30184975110815
STARLINK-30920          
1 58378U 23178E   25309.68836300  .00000406  00000+0  25826-4 0  9991
2 58378  53.1607 204.4802 0001178  94.4291 265.6844 15.30196171111081
STARLINK-30882          
1 58379U 23178F   25309.01996659 -.00012503  00000+0 -41158-3 0  9991
2 58379  53.1606 220.1731 0001364  86.2500 273.8656 15.30131030110800
STARLINK-30915          
1 58380U 23178G   25309.90092414 -.00000472  00000+0 -38214-5 0  9990
2 58380  53.1600 126.3239 0001238  82.0017 278.1124 15.30210288112165
STARLINK-30923          
1 58381U 23178H   25309.74788455  .00005189  00000+0  18727-3 0  9993
2 58381  53.1603 216.8523 0001219  87.7554 272.3587 15.30185496110841
STARLINK-30927          
1 58382U 23178J   25309.04315749  .00001565  00000+0  64997-4 0  9994
2 58382  53.1614 220.3174 0001524  96.1857 263.9317 15.30183096110789
